{
  "type": "FeatureCollection",
  "features": [
    {
      "type": "Feature",
      "geometry": {
        "type": "Point",
        "coordinates": [
          7.1366846420806365,
          35.43483217398051
        ]
      },
      "properties": {
        "uuid": "BS-1001",
        "code": "BS-1001",
        "title": "تراكم النفايات",
        "municipality": "خنشلة",
        "zone": "Zone A",
        "neighborhood": "الوسط",
        "street": "شارع 1",
        "address": "شارع 1، الوسط، خنشلة",
        "status": "open",
        "priority": "critical",
        "category": "تراكم النفايات",
        "riskLevel": "high",
        "reportedAt": "2026-07-01T00:00:00.000Z",
        "responsible": "س. بن عمر",
        "inspections": 1,
        "description": "تم رصد تراكم للنفايات في الموقع يتطلب تدخلاً عاجلاً من المصالح المختصة لتنظيف المنطقة ووضع حاويات إضافية.",
        "createdBy": "system",
        "createdAt": "2026-07-23T16:09:57.244Z",
        "updatedAt": "2026-07-23T16:09:57.244Z",
        "attachments": [],
        "history": []
      }
    },
    {
      "type": "Feature",
      "geometry": {
        "type": "Point",
        "coordinates": [
          7.211314114194264,
          35.37631508456694
        ]
      },
      "properties": {
        "uuid": "BS-1002",
        "code": "BS-1002",
        "title": "حاوية مكسورة",
        "municipality": "بوحمامة",
        "zone": "Zone A",
        "neighborhood": "النصر",
        "street": "شارع 2",
        "address": "شارع 2، النصر، بوحمامة",
        "status": "inProgress",
        "priority": "high",
        "category": "حاوية مكسورة",
        "riskLevel": "medium",
        "reportedAt": "2026-07-02T00:00:00.000Z",
        "responsible": "م. خليفي",
        "inspections": 2,
        "description": "تم رصد تراكم للنفايات في الموقع يتطلب تدخلاً عاجلاً من المصالح المختصة لتنظيف المنطقة ووضع حاويات إضافية.",
        "createdBy": "system",
        "createdAt": "2026-07-23T16:09:57.244Z",
        "updatedAt": "2026-07-23T16:09:57.244Z",
        "attachments": [],
        "history": []
      }
    },
    {
      "type": "Feature",
      "geometry": {
        "type": "Point",
        "coordinates": [
          7.082409772542044,
          35.39649964138593
        ]
      },
      "properties": {
        "uuid": "BS-1003",
        "code": "BS-1003",
        "title": "تفريغ غير قانوني",
        "municipality": "الحمامة",
        "zone": "Zone A",
        "neighborhood": "النور",
        "street": "شارع 3",
        "address": "شارع 3، النور، الحمامة",
        "status": "resolved",
        "priority": "medium",
        "category": "تفريغ غير قانوني",
        "riskLevel": "low",
        "reportedAt": "2026-07-03T00:00:00.000Z",
        "responsible": "ع. مرزوق",
        "inspections": 3,
        "description": "تم رصد تراكم للنفايات في الموقع يتطلب تدخلاً عاجلاً من المصالح المختصة لتنظيف المنطقة ووضع حاويات إضافية.",
        "createdBy": "system",
        "createdAt": "2026-07-23T16:09:57.244Z",
        "updatedAt": "2026-07-23T16:09:57.244Z",
        "attachments": [],
        "history": []
      }
    },
    {
      "type": "Feature",
      "geometry": {
        "type": "Point",
        "coordinates": [
          7.1832257125122645,
          35.365789547802656
        ]
      },
      "properties": {
        "uuid": "BS-1004",
        "code": "BS-1004",
        "title": "انسداد مجاري",
        "municipality": "بقاية",
        "zone": "Zone A",
        "neighborhood": "الأمل",
        "street": "شارع 4",
        "address": "شارع 4، الأمل، بقاية",
        "status": "closed",
        "priority": "low",
        "category": "انسداد مجاري",
        "riskLevel": "high",
        "reportedAt": "2026-07-04T00:00:00.000Z",
        "responsible": "ف. بلقاسم",
        "inspections": 4,
        "description": "تم رصد تراكم للنفايات في الموقع يتطلب تدخلاً عاجلاً من المصالح المختصة لتنظيف المنطقة ووضع حاويات إضافية.",
        "createdBy": "system",
        "createdAt": "2026-07-23T16:09:57.244Z",
        "updatedAt": "2026-07-23T16:09:57.244Z",
        "attachments": [],
        "history": []
      }
    },
    {
      "type": "Feature",
      "geometry": {
        "type": "Point",
        "coordinates": [
          7.20883495870774,
          35.4372110196155
        ]
      },
      "properties": {
        "uuid": "BS-1005",
        "code": "BS-1005",
        "title": "حطام بناء",
        "municipality": "قايس",
        "zone": "Zone A",
        "neighborhood": "البركة",
        "street": "شارع 5",
        "address": "شارع 5، البركة، قايس",
        "status": "open",
        "priority": "critical",
        "category": "حطام بناء",
        "riskLevel": "medium",
        "reportedAt": "2026-07-05T00:00:00.000Z",
        "responsible": "ل. حمداني",
        "inspections": 5,
        "description": "تم رصد تراكم للنفايات في الموقع يتطلب تدخلاً عاجلاً من المصالح المختصة لتنظيف المنطقة ووضع حاويات إضافية.",
        "createdBy": "system",
        "createdAt": "2026-07-23T16:09:57.244Z",
        "updatedAt": "2026-07-23T16:09:57.244Z",
        "attachments": [],
        "history": []
      }
    },
    {
      "type": "Feature",
      "geometry": {
        "type": "Point",
        "coordinates": [
          7.064320221169095,
          35.39878822741
        ]
      },
      "properties": {
        "uuid": "BS-1006",
        "code": "BS-1006",
        "title": "رمي عشوائي",
        "municipality": "رميلة",
        "zone": "Zone A",
        "neighborhood": "الوحدة",
        "street": "شارع 6",
        "address": "شارع 6، الوحدة، رميلة",
        "status": "inProgress",
        "priority": "high",
        "category": "رمي عشوائي",
        "riskLevel": "low",
        "reportedAt": "2026-07-06T00:00:00.000Z",
        "responsible": "ر. سعدي",
        "inspections": 1,
        "description": "تم رصد تراكم للنفايات في الموقع يتطلب تدخلاً عاجلاً من المصالح المختصة لتنظيف المنطقة ووضع حاويات إضافية.",
        "createdBy": "system",
        "createdAt": "2026-07-23T16:09:57.244Z",
        "updatedAt": "2026-07-23T16:09:57.244Z",
        "attachments": [],
        "history": []
      }
    },
    {
      "type": "Feature",
      "geometry": {
        "type": "Point",
        "coordinates": [
          7.08869672003515,
          35.343380959672004
        ]
      },
      "properties": {
        "uuid": "BS-1007",
        "code": "BS-1007",
        "title": "تراكم النفايات",
        "municipality": "عين التوية",
        "zone": "Zone A",
        "neighborhood": "الفتح",
        "street": "شارع 7",
        "address": "شارع 7، الفتح، عين التوية",
        "status": "resolved",
        "priority": "medium",
        "category": "تراكم النفايات",
        "riskLevel": "high",
        "reportedAt": "2026-07-07T00:00:00.000Z",
        "responsible": "ك. عثماني",
        "inspections": 2,
        "description": "تم رصد تراكم للنفايات في الموقع يتطلب تدخلاً عاجلاً من المصالح المختصة لتنظيف المنطقة ووضع حاويات إضافية.",
        "createdBy": "system",
        "createdAt": "2026-07-23T16:09:57.244Z",
        "updatedAt": "2026-07-23T16:09:57.244Z",
        "attachments": [],
        "history": []
      }
    },
    {
      "type": "Feature",
      "geometry": {
        "type": "Point",
        "coordinates": [
          7.2083572087777235,
          35.292814630340686
        ]
      },
      "properties": {
        "uuid": "BS-1008",
        "code": "BS-1008",
        "title": "حاوية مكسورة",
        "municipality": "بابار",
        "zone": "Zone A",
        "neighborhood": "القدس",
        "street": "شارع 8",
        "address": "شارع 8، القدس، بابار",
        "status": "closed",
        "priority": "low",
        "category": "حاوية مكسورة",
        "riskLevel": "medium",
        "reportedAt": "2026-07-08T00:00:00.000Z",
        "responsible": "س. لعروسي",
        "inspections": 3,
        "description": "تم رصد تراكم للنفايات في الموقع يتطلب تدخلاً عاجلاً من المصالح المختصة لتنظيف المنطقة ووضع حاويات إضافية.",
        "createdBy": "system",
        "createdAt": "2026-07-23T16:09:57.244Z",
        "updatedAt": "2026-07-23T16:09:57.244Z",
        "attachments": [],
        "history": []
      }
    },
    {
      "type": "Feature",
      "geometry": {
        "type": "Point",
        "coordinates": [
          7.246516795409634,
          35.34115585288225
        ]
      },
      "properties": {
        "uuid": "BS-1009",
        "code": "BS-1009",
        "title": "تفريغ غير قانوني",
        "municipality": "تامزة",
        "zone": "Zone A",
        "neighborhood": "الورود",
        "street": "شارع 9",
        "address": "شارع 9، الورود، تامزة",
        "status": "open",
        "priority": "critical",
        "category": "تفريغ غير قانوني",
        "riskLevel": "low",
        "reportedAt": "2026-07-09T00:00:00.000Z",
        "responsible": "م. قاووس",
        "inspections": 4,
        "description": "تم رصد تراكم للنفايات في الموقع يتطلب تدخلاً عاجلاً من المصالح المختصة لتنظيف المنطقة ووضع حاويات إضافية.",
        "createdBy": "system",
        "createdAt": "2026-07-23T16:09:57.244Z",
        "updatedAt": "2026-07-23T16:09:57.244Z",
        "attachments": [],
        "history": []
      }
    },
    {
      "type": "Feature",
      "geometry": {
        "type": "Point",
        "coordinates": [
          7.287821034215945,
          35.369826890008184
        ]
      },
      "properties": {
        "uuid": "BS-1010",
        "code": "BS-1010",
        "title": "انسداد مجاري",
        "municipality": "الولجة",
        "zone": "Zone A",
        "neighborhood": "الورود",
        "street": "شارع 10",
        "address": "شارع 10، الورود، الولجة",
        "status": "inProgress",
        "priority": "high",
        "category": "انسداد مجاري",
        "riskLevel": "high",
        "reportedAt": "2026-07-10T00:00:00.000Z",
        "responsible": "ع. مرزوق",
        "inspections": 5,
        "description": "تم رصد تراكم للنفايات في الموقع يتطلب تدخلاً عاجلاً من المصالح المختصة لتنظيف المنطقة ووضع حاويات إضافية.",
        "createdBy": "system",
        "createdAt": "2026-07-23T16:09:57.244Z",
        "updatedAt": "2026-07-23T16:09:57.244Z",
        "attachments": [],
        "history": []
      }
    },
    {
      "type": "Feature",
      "geometry": {
        "type": "Point",
        "coordinates": [
          7.146537541930802,
          35.275316250899316
        ]
      },
      "properties": {
        "uuid": "BS-1011",
        "code": "BS-1011",
        "title": "حطام بناء",
        "municipality": "بوزينة",
        "zone": "Zone A",
        "neighborhood": "الزهور",
        "street": "شارع 11",
        "address": "شارع 11، الزهور، بوزينة",
        "status": "resolved",
        "priority": "medium",
        "category": "حطام بناء",
        "riskLevel": "medium",
        "reportedAt": "2026-07-11T00:00:00.000Z",
        "responsible": "ف. بلقاسم",
        "inspections": 1,
        "description": "تم رصد تراكم للنفايات في الموقع يتطلب تدخلاً عاجلاً من المصالح المختصة لتنظيف المنطقة ووضع حاويات إضافية.",
        "createdBy": "system",
        "createdAt": "2026-07-23T16:09:57.244Z",
        "updatedAt": "2026-07-23T16:09:57.244Z",
        "attachments": [],
        "history": []
      }
    },
    {
      "type": "Feature",
      "geometry": {
        "type": "Point",
        "coordinates": [
          7.083124048713111,
          35.4389049142934
        ]
      },
      "properties": {
        "uuid": "BS-1012",
        "code": "BS-1012",
        "title": "رمي عشوائي",
        "municipality": "شرشار",
        "zone": "Zone A",
        "neighborhood": "النهضة",
        "street": "شارع 12",
        "address": "شارع 12، النهضة، شرشار",
        "status": "closed",
        "priority": "low",
        "category": "رمي عشوائي",
        "riskLevel": "low",
        "reportedAt": "2026-07-12T00:00:00.000Z",
        "responsible": "ل. حمداني",
        "inspections": 2,
        "description": "تم رصد تراكم للنفايات في الموقع يتطلب تدخلاً عاجلاً من المصالح المختصة لتنظيف المنطقة ووضع حاويات إضافية.",
        "createdBy": "system",
        "createdAt": "2026-07-23T16:09:57.244Z",
        "updatedAt": "2026-07-23T16:09:57.244Z",
        "attachments": [],
        "history": []
      }
    },
    {
      "type": "Feature",
      "geometry": {
        "type": "Point",
        "coordinates": [
          7.212698981280916,
          35.24844994483684
        ]
      },
      "properties": {
        "uuid": "BS-1013",
        "code": "BS-1013",
        "title": "تراكم النفايات",
        "municipality": "جلال",
        "zone": "Zone A",
        "neighborhood": "الإخاء",
        "street": "شارع 13",
        "address": "شارع 13، الإخاء، جلال",
        "status": "open",
        "priority": "critical",
        "category": "تراكم النفايات",
        "riskLevel": "high",
        "reportedAt": "2026-07-13T00:00:00.000Z",
        "responsible": "ر. سعدي",
        "inspections": 3,
        "description": "تم رصد تراكم للنفايات في الموقع يتطلب تدخلاً عاجلاً من المصالح المختصة لتنظيف المنطقة ووضع حاويات إضافية.",
        "createdBy": "system",
        "createdAt": "2026-07-23T16:09:57.244Z",
        "updatedAt": "2026-07-23T16:09:57.244Z",
        "attachments": [],
        "history": []
      }
    },
    {
      "type": "Feature",
      "geometry": {
        "type": "Point",
        "coordinates": [
          7.120317877050686,
          35.476948657514065
        ]
      },
      "properties": {
        "uuid": "BS-1014",
        "code": "BS-1014",
        "title": "حاوية مكسورة",
        "municipality": "المحمل",
        "zone": "Zone A",
        "neighborhood": "الفردوس",
        "street": "شارع 14",
        "address": "شارع 14، الفردوس، المحمل",
        "status": "inProgress",
        "priority": "high",
        "category": "حاوية مكسورة",
        "riskLevel": "medium",
        "reportedAt": "2026-07-14T00:00:00.000Z",
        "responsible": "ك. عثماني",
        "inspections": 4,
        "description": "تم رصد تراكم للنفايات في الموقع يتطلب تدخلاً عاجلاً من المصالح المختصة لتنظيف المنطقة ووضع حاويات إضافية.",
        "createdBy": "system",
        "createdAt": "2026-07-23T16:09:57.244Z",
        "updatedAt": "2026-07-23T16:09:57.244Z",
        "attachments": [],
        "history": []
      }
    },
    {
      "type": "Feature",
      "geometry": {
        "type": "Point",
        "coordinates": [
          7.209359710706352,
          35.50305013503801
        ]
      },
      "properties": {
        "uuid": "BS-1015",
        "code": "BS-1015",
        "title": "تفريغ غير قانوني",
        "municipality": "المسارة",
        "zone": "Zone A",
        "neighborhood": "البرج",
        "street": "شارع 15",
        "address": "شارع 15، البرج، المسارة",
        "status": "resolved",
        "priority": "medium",
        "category": "تفريغ غير قانوني",
        "riskLevel": "low",
        "reportedAt": "2026-07-15T00:00:00.000Z",
        "responsible": "س. لعروسي",
        "inspections": 5,
        "description": "تم رصد تراكم للنفايات في الموقع يتطلب تدخلاً عاجلاً من المصالح المختصة لتنظيف المنطقة ووضع حاويات إضافية.",
        "createdBy": "system",
        "createdAt": "2026-07-23T16:09:57.244Z",
        "updatedAt": "2026-07-23T16:09:57.244Z",
        "attachments": [],
        "history": []
      }
    },
    {
      "type": "Feature",
      "geometry": {
        "type": "Point",
        "coordinates": [
          7.0511046340389285,
          35.53190968371343
        ]
      },
      "properties": {
        "uuid": "BS-1016",
        "code": "BS-1016",
        "title": "انسداد مجاري",
        "municipality": "يابوس",
        "zone": "Zone A",
        "neighborhood": "الصباح",
        "street": "شارع 16",
        "address": "شارع 16، الصباح، يابوس",
        "status": "closed",
        "priority": "low",
        "category": "انسداد مجاري",
        "riskLevel": "high",
        "reportedAt": "2026-07-16T00:00:00.000Z",
        "responsible": "م. قاووس",
        "inspections": 1,
        "description": "تم رصد تراكم للنفايات في الموقع يتطلب تدخلاً عاجلاً من المصالح المختصة لتنظيف المنطقة ووضع حاويات إضافية.",
        "createdBy": "system",
        "createdAt": "2026-07-23T16:09:57.244Z",
        "updatedAt": "2026-07-23T16:09:57.244Z",
        "attachments": [],
        "history": []
      }
    },
    {
      "type": "Feature",
      "geometry": {
        "type": "Point",
        "coordinates": [
          7.0863840976806465,
          35.25221869457102
        ]
      },
      "properties": {
        "uuid": "BS-1017",
        "code": "BS-1017",
        "title": "حطام بناء",
        "municipality": "خيران",
        "zone": "Zone A",
        "neighborhood": "الغابة",
        "street": "شارع 17",
        "address": "شارع 17، الغابة، خيران",
        "status": "open",
        "priority": "critical",
        "category": "حطام بناء",
        "riskLevel": "medium",
        "reportedAt": "2026-07-17T00:00:00.000Z",
        "responsible": "ع. مرزوق",
        "inspections": 2,
        "description": "تم رصد تراكم للنفايات في الموقع يتطلب تدخلاً عاجلاً من المصالح المختصة لتنظيف المنطقة ووضع حاويات إضافية.",
        "createdBy": "system",
        "createdAt": "2026-07-23T16:09:57.244Z",
        "updatedAt": "2026-07-23T16:09:57.244Z",
        "attachments": [],
        "history": []
      }
    },
    {
      "type": "Feature",
      "geometry": {
        "type": "Point",
        "coordinates": [
          7.190676659232286,
          35.2184992542872
        ]
      },
      "properties": {
        "uuid": "BS-1018",
        "code": "BS-1018",
        "title": "رمي عشوائي",
        "municipality": "تازغروت",
        "zone": "Zone A",
        "neighborhood": "الحدائق",
        "street": "شارع 18",
        "address": "شارع 18، الحدائق، تازغروت",
        "status": "inProgress",
        "priority": "high",
        "category": "رمي عشوائي",
        "riskLevel": "low",
        "reportedAt": "2026-07-18T00:00:00.000Z",
        "responsible": "ف. بلقاسم",
        "inspections": 3,
        "description": "تم رصد تراكم للنفايات في الموقع يتطلب تدخلاً عاجلاً من المصالح المختصة لتنظيف المنطقة ووضع حاويات إضافية.",
        "createdBy": "system",
        "createdAt": "2026-07-23T16:09:57.244Z",
        "updatedAt": "2026-07-23T16:09:57.244Z",
        "attachments": [],
        "history": []
      }
    },
    {
      "type": "Feature",
      "geometry": {
        "type": "Point",
        "coordinates": [
          7.247875551625037,
          35.56067372393704
        ]
      },
      "properties": {
        "uuid": "BS-1019",
        "code": "BS-1019",
        "title": "تراكم النفايات",
        "municipality": "تليسنة",
        "zone": "Zone A",
        "neighborhood": "الحدائق",
        "street": "شارع 19",
        "address": "شارع 19، الحدائق، تليسنة",
        "status": "resolved",
        "priority": "medium",
        "category": "تراكم النفايات",
        "riskLevel": "high",
        "reportedAt": "2026-07-19T00:00:00.000Z",
        "responsible": "ل. حمداني",
        "inspections": 4,
        "description": "تم رصد تراكم للنفايات في الموقع يتطلب تدخلاً عاجلاً من المصالح المختصة لتنظيف المنطقة ووضع حاويات إضافية.",
        "createdBy": "system",
        "createdAt": "2026-07-23T16:09:57.244Z",
        "updatedAt": "2026-07-23T16:09:57.244Z",
        "attachments": [],
        "history": []
      }
    },
    {
      "type": "Feature",
      "geometry": {
        "type": "Point",
        "coordinates": [
          7.275169901242565,
          35.47022541653108
        ]
      },
      "properties": {
        "uuid": "BS-1020",
        "code": "BS-1020",
        "title": "حاوية مكسورة",
        "municipality": "سيدي عقبة",
        "zone": "Zone A",
        "neighborhood": "النخيل",
        "street": "شارع 20",
        "address": "شارع 20، النخيل، سيدي عقبة",
        "status": "closed",
        "priority": "low",
        "category": "حاوية مكسورة",
        "riskLevel": "medium",
        "reportedAt": "2026-07-20T00:00:00.000Z",
        "responsible": "ر. سعدي",
        "inspections": 5,
        "description": "تم رصد تراكم للنفايات في الموقع يتطلب تدخلاً عاجلاً من المصالح المختصة لتنظيف المنطقة ووضع حاويات إضافية.",
        "createdBy": "system",
        "createdAt": "2026-07-23T16:09:57.244Z",
        "updatedAt": "2026-07-23T16:09:57.244Z",
        "attachments": [],
        "history": []
      }
    },
    {
      "type": "Feature",
      "geometry": {
        "type": "Point",
        "coordinates": [
          7.1478525697635895,
          35.58935070656703
        ]
      },
      "properties": {
        "uuid": "BS-1021",
        "code": "BS-1021",
        "title": "تفريغ غير قانوني",
        "municipality": "المسارة الشرقية",
        "zone": "Zone A",
        "neighborhood": "الشريف",
        "street": "شارع 21",
        "address": "شارع 21، الشريف، المسارة الشرقية",
        "status": "open",
        "priority": "critical",
        "category": "تفريغ غير قانوني",
        "riskLevel": "low",
        "reportedAt": "2026-07-01T00:00:00.000Z",
        "responsible": "ك. عثماني",
        "inspections": 1,
        "description": "تم رصد تراكم للنفايات في الموقع يتطلب تدخلاً عاجلاً من المصالح المختصة لتنظيف المنطقة ووضع حاويات إضافية.",
        "createdBy": "system",
        "createdAt": "2026-07-23T16:09:57.244Z",
        "updatedAt": "2026-07-23T16:09:57.244Z",
        "attachments": [],
        "history": []
      }
    },
    {
      "type": "Feature",
      "geometry": {
        "type": "Point",
        "coordinates": [
          7.061467302772036,
          35.32185566574151
        ]
      },
      "properties": {
        "uuid": "BS-1022",
        "code": "BS-1022",
        "title": "انسداد مجاري",
        "municipality": "أولاد رشاش",
        "zone": "Zone A",
        "neighborhood": "الوسط",
        "street": "شارع 22",
        "address": "شارع 22، الوسط، أولاد رشاش",
        "status": "inProgress",
        "priority": "high",
        "category": "انسداد مجاري",
        "riskLevel": "high",
        "reportedAt": "2026-07-02T00:00:00.000Z",
        "responsible": "س. لعروسي",
        "inspections": 2,
        "description": "تم رصد تراكم للنفايات في الموقع يتطلب تدخلاً عاجلاً من المصالح المختصة لتنظيف المنطقة ووضع حاويات إضافية.",
        "createdBy": "system",
        "createdAt": "2026-07-23T16:09:57.244Z",
        "updatedAt": "2026-07-23T16:09:57.244Z",
        "attachments": [],
        "history": []
      }
    },
    {
      "type": "Feature",
      "geometry": {
        "type": "Point",
        "coordinates": [
          7.244941582740666,
          35.18918378473451
        ]
      },
      "properties": {
        "uuid": "BS-1023",
        "code": "BS-1023",
        "title": "حطام بناء",
        "municipality": "لمسين",
        "zone": "Zone A",
        "neighborhood": "النصر",
        "street": "شارع 23",
        "address": "شارع 23، النصر، لمسين",
        "status": "resolved",
        "priority": "medium",
        "category": "حطام بناء",
        "riskLevel": "medium",
        "reportedAt": "2026-07-03T00:00:00.000Z",
        "responsible": "م. قاووس",
        "inspections": 3,
        "description": "تم رصد تراكم للنفايات في الموقع يتطلب تدخلاً عاجلاً من المصالح المختصة لتنظيف المنطقة ووضع حاويات إضافية.",
        "createdBy": "system",
        "createdAt": "2026-07-23T16:09:57.244Z",
        "updatedAt": "2026-07-23T16:09:57.244Z",
        "attachments": [],
        "history": []
      }
    },
    {
      "type": "Feature",
      "geometry": {
        "type": "Point",
        "coordinates": [
          7.038811231232861,
          35.598449054885
        ]
      },
      "properties": {
        "uuid": "BS-1024",
        "code": "BS-1024",
        "title": "رمي عشوائي",
        "municipality": "البلالة",
        "zone": "Zone A",
        "neighborhood": "السلام",
        "street": "شارع 24",
        "address": "شارع 24، السلام، البلالة",
        "status": "closed",
        "priority": "low",
        "category": "رمي عشوائي",
        "riskLevel": "low",
        "reportedAt": "2026-07-04T00:00:00.000Z",
        "responsible": "ع. مرزوق",
        "inspections": 4,
        "description": "تم رصد تراكم للنفايات في الموقع يتطلب تدخلاً عاجلاً من المصالح المختصة لتنظيف المنطقة ووضع حاويات إضافية.",
        "createdBy": "system",
        "createdAt": "2026-07-23T16:09:57.244Z",
        "updatedAt": "2026-07-23T16:09:57.244Z",
        "attachments": [],
        "history": []
      }
    },
    {
      "type": "Feature",
      "geometry": {
        "type": "Point",
        "coordinates": [
          7.111071585329836,
          35.17824962340501
        ]
      },
      "properties": {
        "uuid": "BS-1025",
        "code": "BS-1025",
        "title": "تراكم النفايات",
        "municipality": "عنسيغة",
        "zone": "Zone A",
        "neighborhood": "النور",
        "street": "شارع 25",
        "address": "شارع 25، النور، عنسيغة",
        "status": "open",
        "priority": "critical",
        "category": "تراكم النفايات",
        "riskLevel": "high",
        "reportedAt": "2026-07-05T00:00:00.000Z",
        "responsible": "ف. بلقاسم",
        "inspections": 5,
        "description": "تم رصد تراكم للنفايات في الموقع يتطلب تدخلاً عاجلاً من المصالح المختصة لتنظيف المنطقة ووضع حاويات إضافية.",
        "createdBy": "system",
        "createdAt": "2026-07-23T16:09:57.244Z",
        "updatedAt": "2026-07-23T16:09:57.244Z",
        "attachments": [],
        "history": []
      }
    },
    {
      "type": "Feature",
      "geometry": {
        "type": "Point",
        "coordinates": [
          7.307727844096401,
          35.41898839522671
        ]
      },
      "properties": {
        "uuid": "BS-1026",
        "code": "BS-1026",
        "title": "حاوية مكسورة",
        "municipality": "قايس أولاد يحيى",
        "zone": "Zone A",
        "neighborhood": "الأمل",
        "street": "شارع 26",
        "address": "شارع 26، الأمل، قايس أولاد يحيى",
        "status": "inProgress",
        "priority": "high",
        "category": "حاوية مكسورة",
        "riskLevel": "medium",
        "reportedAt": "2026-07-06T00:00:00.000Z",
        "responsible": "ل. حمداني",
        "inspections": 1,
        "description": "تم رصد تراكم للنفايات في الموقع يتطلب تدخلاً عاجلاً من المصالح المختصة لتنظيف المنطقة ووضع حاويات إضافية.",
        "createdBy": "system",
        "createdAt": "2026-07-23T16:09:57.244Z",
        "updatedAt": "2026-07-23T16:09:57.244Z",
        "attachments": [],
        "history": []
      }
    },
    {
      "type": "Feature",
      "geometry": {
        "type": "Point",
        "coordinates": [
          7.134137797241367,
          35.42424127229338
        ]
      },
      "properties": {
        "uuid": "BS-1027",
        "code": "BS-1027",
        "title": "تفريغ غير قانوني",
        "municipality": "خنشلة",
        "zone": "Zone A",
        "neighborhood": "البركة",
        "street": "شارع 27",
        "address": "شارع 27، البركة، خنشلة",
        "status": "resolved",
        "priority": "medium",
        "category": "تفريغ غير قانوني",
        "riskLevel": "low",
        "reportedAt": "2026-07-07T00:00:00.000Z",
        "responsible": "س. بن عمر",
        "inspections": 2,
        "description": "تم رصد تراكم للنفايات في الموقع يتطلب تدخلاً عاجلاً من المصالح المختصة لتنظيف المنطقة ووضع حاويات إضافية.",
        "createdBy": "system",
        "createdAt": "2026-07-23T16:09:57.244Z",
        "updatedAt": "2026-07-23T16:09:57.244Z",
        "attachments": [],
        "history": []
      }
    },
    {
      "type": "Feature",
      "geometry": {
        "type": "Point",
        "coordinates": [
          7.2312918964318325,
          35.37488641247739
        ]
      },
      "properties": {
        "uuid": "BS-1028",
        "code": "BS-1028",
        "title": "انسداد مجاري",
        "municipality": "بوحمامة",
        "zone": "Zone A",
        "neighborhood": "البركة",
        "street": "شارع 28",
        "address": "شارع 28، البركة، بوحمامة",
        "status": "closed",
        "priority": "low",
        "category": "انسداد مجاري",
        "riskLevel": "high",
        "reportedAt": "2026-07-08T00:00:00.000Z",
        "responsible": "م. خليفي",
        "inspections": 3,
        "description": "تم رصد تراكم للنفايات في الموقع يتطلب تدخلاً عاجلاً من المصالح المختصة لتنظيف المنطقة ووضع حاويات إضافية.",
        "createdBy": "system",
        "createdAt": "2026-07-23T16:09:57.244Z",
        "updatedAt": "2026-07-23T16:09:57.244Z",
        "attachments": [],
        "history": []
      }
    },
    {
      "type": "Feature",
      "geometry": {
        "type": "Point",
        "coordinates": [
          7.0834719518161595,
          35.39998474469217
        ]
      },
      "properties": {
        "uuid": "BS-1029",
        "code": "BS-1029",
        "title": "حطام بناء",
        "municipality": "الحمامة",
        "zone": "Zone A",
        "neighborhood": "الوحدة",
        "street": "شارع 29",
        "address": "شارع 29، الوحدة، الحمامة",
        "status": "open",
        "priority": "critical",
        "category": "حطام بناء",
        "riskLevel": "medium",
        "reportedAt": "2026-07-09T00:00:00.000Z",
        "responsible": "ع. مرزوق",
        "inspections": 4,
        "description": "تم رصد تراكم للنفايات في الموقع يتطلب تدخلاً عاجلاً من المصالح المختصة لتنظيف المنطقة ووضع حاويات إضافية.",
        "createdBy": "system",
        "createdAt": "2026-07-23T16:09:57.244Z",
        "updatedAt": "2026-07-23T16:09:57.244Z",
        "attachments": [],
        "history": []
      }
    },
    {
      "type": "Feature",
      "geometry": {
        "type": "Point",
        "coordinates": [
          7.170742484774439,
          35.36898205822205
        ]
      },
      "properties": {
        "uuid": "BS-1030",
        "code": "BS-1030",
        "title": "رمي عشوائي",
        "municipality": "بقاية",
        "zone": "Zone A",
        "neighborhood": "القدس",
        "street": "شارع 30",
        "address": "شارع 30، القدس، بقاية",
        "status": "inProgress",
        "priority": "high",
        "category": "رمي عشوائي",
        "riskLevel": "low",
        "reportedAt": "2026-07-10T00:00:00.000Z",
        "responsible": "ف. بلقاسم",
        "inspections": 5,
        "description": "تم رصد تراكم للنفايات في الموقع يتطلب تدخلاً عاجلاً من المصالح المختصة لتنظيف المنطقة ووضع حاويات إضافية.",
        "createdBy": "system",
        "createdAt": "2026-07-23T16:09:57.244Z",
        "updatedAt": "2026-07-23T16:09:57.244Z",
        "attachments": [],
        "history": []
      }
    },
    {
      "type": "Feature",
      "geometry": {
        "type": "Point",
        "coordinates": [
          7.214381312500258,
          35.43273181202991
        ]
      },
      "properties": {
        "uuid": "BS-1031",
        "code": "BS-1031",
        "title": "تراكم النفايات",
        "municipality": "قايس",
        "zone": "Zone A",
        "neighborhood": "الورود",
        "street": "شارع 31",
        "address": "شارع 31، الورود، قايس",
        "status": "resolved",
        "priority": "medium",
        "category": "تراكم النفايات",
        "riskLevel": "high",
        "reportedAt": "2026-07-11T00:00:00.000Z",
        "responsible": "ل. حمداني",
        "inspections": 1,
        "description": "تم رصد تراكم للنفايات في الموقع يتطلب تدخلاً عاجلاً من المصالح المختصة لتنظيف المنطقة ووضع حاويات إضافية.",
        "createdBy": "system",
        "createdAt": "2026-07-23T16:09:57.244Z",
        "updatedAt": "2026-07-23T16:09:57.244Z",
        "attachments": [],
        "history": []
      }
    },
    {
      "type": "Feature",
      "geometry": {
        "type": "Point",
        "coordinates": [
          7.053866969512902,
          35.40881702959568
        ]
      },
      "properties": {
        "uuid": "BS-1032",
        "code": "BS-1032",
        "title": "حاوية مكسورة",
        "municipality": "رميلة",
        "zone": "Zone A",
        "neighborhood": "الزهور",
        "street": "شارع 32",
        "address": "شارع 32، الزهور، رميلة",
        "status": "closed",
        "priority": "low",
        "category": "حاوية مكسورة",
        "riskLevel": "medium",
        "reportedAt": "2026-07-12T00:00:00.000Z",
        "responsible": "ر. سعدي",
        "inspections": 2,
        "description": "تم رصد تراكم للنفايات في الموقع يتطلب تدخلاً عاجلاً من المصالح المختصة لتنظيف المنطقة ووضع حاويات إضافية.",
        "createdBy": "system",
        "createdAt": "2026-07-23T16:09:57.244Z",
        "updatedAt": "2026-07-23T16:09:57.244Z",
        "attachments": [],
        "history": []
      }
    },
    {
      "type": "Feature",
      "geometry": {
        "type": "Point",
        "coordinates": [
          7.087557711117295,
          35.35359045313945
        ]
      },
      "properties": {
        "uuid": "BS-1033",
        "code": "BS-1033",
        "title": "تفريغ غير قانوني",
        "municipality": "عين التوية",
        "zone": "Zone A",
        "neighborhood": "الريان",
        "street": "شارع 33",
        "address": "شارع 33، الريان، عين التوية",
        "status": "open",
        "priority": "critical",
        "category": "تفريغ غير قانوني",
        "riskLevel": "low",
        "reportedAt": "2026-07-13T00:00:00.000Z",
        "responsible": "ك. عثماني",
        "inspections": 3,
        "description": "تم رصد تراكم للنفايات في الموقع يتطلب تدخلاً عاجلاً من المصالح المختصة لتنظيف المنطقة ووضع حاويات إضافية.",
        "createdBy": "system",
        "createdAt": "2026-07-23T16:09:57.244Z",
        "updatedAt": "2026-07-23T16:09:57.244Z",
        "attachments": [],
        "history": []
      }
    },
    {
      "type": "Feature",
      "geometry": {
        "type": "Point",
        "coordinates": [
          7.1879464622606255,
          35.30978357270925
        ]
      },
      "properties": {
        "uuid": "BS-1034",
        "code": "BS-1034",
        "title": "انسداد مجاري",
        "municipality": "بابار",
        "zone": "Zone A",
        "neighborhood": "النهضة",
        "street": "شارع 34",
        "address": "شارع 34، النهضة، بابار",
        "status": "inProgress",
        "priority": "high",
        "category": "انسداد مجاري",
        "riskLevel": "high",
        "reportedAt": "2026-07-14T00:00:00.000Z",
        "responsible": "س. لعروسي",
        "inspections": 4,
        "description": "تم رصد تراكم للنفايات في الموقع يتطلب تدخلاً عاجلاً من المصالح المختصة لتنظيف المنطقة ووضع حاويات إضافية.",
        "createdBy": "system",
        "createdAt": "2026-07-23T16:09:57.244Z",
        "updatedAt": "2026-07-23T16:09:57.244Z",
        "attachments": [],
        "history": []
      }
    },
    {
      "type": "Feature",
      "geometry": {
        "type": "Point",
        "coordinates": [
          7.254042629009457,
          35.332954949426885
        ]
      },
      "properties": {
        "uuid": "BS-1035",
        "code": "BS-1035",
        "title": "حطام بناء",
        "municipality": "تامزة",
        "zone": "Zone A",
        "neighborhood": "الإخاء",
        "street": "شارع 35",
        "address": "شارع 35، الإخاء، تامزة",
        "status": "resolved",
        "priority": "medium",
        "category": "حطام بناء",
        "riskLevel": "medium",
        "reportedAt": "2026-07-15T00:00:00.000Z",
        "responsible": "م. قاووس",
        "inspections": 5,
        "description": "تم رصد تراكم للنفايات في الموقع يتطلب تدخلاً عاجلاً من المصالح المختصة لتنظيف المنطقة ووضع حاويات إضافية.",
        "createdBy": "system",
        "createdAt": "2026-07-23T16:09:57.244Z",
        "updatedAt": "2026-07-23T16:09:57.244Z",
        "attachments": [],
        "history": []
      }
    },
    {
      "type": "Feature",
      "geometry": {
        "type": "Point",
        "coordinates": [
          7.282892753998759,
          35.369903417785345
        ]
      },
      "properties": {
        "uuid": "BS-1036",
        "code": "BS-1036",
        "title": "رمي عشوائي",
        "municipality": "الولجة",
        "zone": "Zone A",
        "neighborhood": "الفردوس",
        "street": "شارع 36",
        "address": "شارع 36، الفردوس، الولجة",
        "status": "closed",
        "priority": "low",
        "category": "رمي عشوائي",
        "riskLevel": "low",
        "reportedAt": "2026-07-16T00:00:00.000Z",
        "responsible": "ع. مرزوق",
        "inspections": 1,
        "description": "تم رصد تراكم للنفايات في الموقع يتطلب تدخلاً عاجلاً من المصالح المختصة لتنظيف المنطقة ووضع حاويات إضافية.",
        "createdBy": "system",
        "createdAt": "2026-07-23T16:09:57.244Z",
        "updatedAt": "2026-07-23T16:09:57.244Z",
        "attachments": [],
        "history": []
      }
    },
    {
      "type": "Feature",
      "geometry": {
        "type": "Point",
        "coordinates": [
          7.149612060298205,
          35.29023106404787
        ]
      },
      "properties": {
        "uuid": "BS-1037",
        "code": "BS-1037",
        "title": "تراكم النفايات",
        "municipality": "بوزينة",
        "zone": "Zone A",
        "neighborhood": "الفردوس",
        "street": "شارع 37",
        "address": "شارع 37، الفردوس، بوزينة",
        "status": "open",
        "priority": "critical",
        "category": "تراكم النفايات",
        "riskLevel": "high",
        "reportedAt": "2026-07-17T00:00:00.000Z",
        "responsible": "ف. بلقاسم",
        "inspections": 2,
        "description": "تم رصد تراكم للنفايات في الموقع يتطلب تدخلاً عاجلاً من المصالح المختصة لتنظيف المنطقة ووضع حاويات إضافية.",
        "createdBy": "system",
        "createdAt": "2026-07-23T16:09:57.244Z",
        "updatedAt": "2026-07-23T16:09:57.244Z",
        "attachments": [],
        "history": []
      }
    },
    {
      "type": "Feature",
      "geometry": {
        "type": "Point",
        "coordinates": [
          7.08852918634408,
          35.453466049485606
        ]
      },
      "properties": {
        "uuid": "BS-1038",
        "code": "BS-1038",
        "title": "حاوية مكسورة",
        "municipality": "شرشار",
        "zone": "Zone A",
        "neighborhood": "البرج",
        "street": "شارع 38",
        "address": "شارع 38، البرج، شرشار",
        "status": "inProgress",
        "priority": "high",
        "category": "حاوية مكسورة",
        "riskLevel": "medium",
        "reportedAt": "2026-07-18T00:00:00.000Z",
        "responsible": "ل. حمداني",
        "inspections": 3,
        "description": "تم رصد تراكم للنفايات في الموقع يتطلب تدخلاً عاجلاً من المصالح المختصة لتنظيف المنطقة ووضع حاويات إضافية.",
        "createdBy": "system",
        "createdAt": "2026-07-23T16:09:57.244Z",
        "updatedAt": "2026-07-23T16:09:57.244Z",
        "attachments": [],
        "history": []
      }
    },
    {
      "type": "Feature",
      "geometry": {
        "type": "Point",
        "coordinates": [
          7.2266910327440055,
          35.250228183378674
        ]
      },
      "properties": {
        "uuid": "BS-1039",
        "code": "BS-1039",
        "title": "تفريغ غير قانوني",
        "municipality": "جلال",
        "zone": "Zone A",
        "neighborhood": "الغابة",
        "street": "شارع 39",
        "address": "شارع 39، الغابة، جلال",
        "status": "resolved",
        "priority": "medium",
        "category": "تفريغ غير قانوني",
        "riskLevel": "low",
        "reportedAt": "2026-07-19T00:00:00.000Z",
        "responsible": "ر. سعدي",
        "inspections": 4,
        "description": "تم رصد تراكم للنفايات في الموقع يتطلب تدخلاً عاجلاً من المصالح المختصة لتنظيف المنطقة ووضع حاويات إضافية.",
        "createdBy": "system",
        "createdAt": "2026-07-23T16:09:57.244Z",
        "updatedAt": "2026-07-23T16:09:57.244Z",
        "attachments": [],
        "history": []
      }
    },
    {
      "type": "Feature",
      "geometry": {
        "type": "Point",
        "coordinates": [
          7.1166483109044245,
          35.476472041363635
        ]
      },
      "properties": {
        "uuid": "BS-1040",
        "code": "BS-1040",
        "title": "انسداد مجاري",
        "municipality": "المحمل",
        "zone": "Zone A",
        "neighborhood": "الحدائق",
        "street": "شارع 40",
        "address": "شارع 40، الحدائق، المحمل",
        "status": "closed",
        "priority": "low",
        "category": "انسداد مجاري",
        "riskLevel": "high",
        "reportedAt": "2026-07-20T00:00:00.000Z",
        "responsible": "ك. عثماني",
        "inspections": 5,
        "description": "تم رصد تراكم للنفايات في الموقع يتطلب تدخلاً عاجلاً من المصالح المختصة لتنظيف المنطقة ووضع حاويات إضافية.",
        "createdBy": "system",
        "createdAt": "2026-07-23T16:09:57.244Z",
        "updatedAt": "2026-07-23T16:09:57.244Z",
        "attachments": [],
        "history": []
      }
    },
    {
      "type": "Feature",
      "geometry": {
        "type": "Point",
        "coordinates": [
          7.206343654872689,
          35.50635607772729
        ]
      },
      "properties": {
        "uuid": "BS-1041",
        "code": "BS-1041",
        "title": "حطام بناء",
        "municipality": "المسارة",
        "zone": "Zone A",
        "neighborhood": "النخيل",
        "street": "شارع 41",
        "address": "شارع 41، النخيل، المسارة",
        "status": "open",
        "priority": "critical",
        "category": "حطام بناء",
        "riskLevel": "medium",
        "reportedAt": "2026-07-01T00:00:00.000Z",
        "responsible": "س. لعروسي",
        "inspections": 1,
        "description": "تم رصد تراكم للنفايات في الموقع يتطلب تدخلاً عاجلاً من المصالح المختصة لتنظيف المنطقة ووضع حاويات إضافية.",
        "createdBy": "system",
        "createdAt": "2026-07-23T16:09:57.244Z",
        "updatedAt": "2026-07-23T16:09:57.244Z",
        "attachments": [],
        "history": []
      }
    },
    {
      "type": "Feature",
      "geometry": {
        "type": "Point",
        "coordinates": [
          7.042735161375395,
          35.51653357376098
        ]
      },
      "properties": {
        "uuid": "BS-1042",
        "code": "BS-1042",
        "title": "رمي عشوائي",
        "municipality": "يابوس",
        "zone": "Zone A",
        "neighborhood": "الأطلس",
        "street": "شارع 42",
        "address": "شارع 42، الأطلس، يابوس",
        "status": "inProgress",
        "priority": "high",
        "category": "رمي عشوائي",
        "riskLevel": "low",
        "reportedAt": "2026-07-02T00:00:00.000Z",
        "responsible": "م. قاووس",
        "inspections": 2,
        "description": "تم رصد تراكم للنفايات في الموقع يتطلب تدخلاً عاجلاً من المصالح المختصة لتنظيف المنطقة ووضع حاويات إضافية.",
        "createdBy": "system",
        "createdAt": "2026-07-23T16:09:57.244Z",
        "updatedAt": "2026-07-23T16:09:57.244Z",
        "attachments": [],
        "history": []
      }
    },
    {
      "type": "Feature",
      "geometry": {
        "type": "Point",
        "coordinates": [
          7.069346865738119,
          35.23781303108328
        ]
      },
      "properties": {
        "uuid": "BS-1043",
        "code": "BS-1043",
        "title": "تراكم النفايات",
        "municipality": "خيران",
        "zone": "Zone A",
        "neighborhood": "الشريف",
        "street": "شارع 43",
        "address": "شارع 43، الشريف، خيران",
        "status": "resolved",
        "priority": "medium",
        "category": "تراكم النفايات",
        "riskLevel": "high",
        "reportedAt": "2026-07-03T00:00:00.000Z",
        "responsible": "ع. مرزوق",
        "inspections": 3,
        "description": "تم رصد تراكم للنفايات في الموقع يتطلب تدخلاً عاجلاً من المصالح المختصة لتنظيف المنطقة ووضع حاويات إضافية.",
        "createdBy": "system",
        "createdAt": "2026-07-23T16:09:57.244Z",
        "updatedAt": "2026-07-23T16:09:57.244Z",
        "attachments": [],
        "history": []
      }
    },
    {
      "type": "Feature",
      "geometry": {
        "type": "Point",
        "coordinates": [
          7.1803490991394545,
          35.22417767709242
        ]
      },
      "properties": {
        "uuid": "BS-1044",
        "code": "BS-1044",
        "title": "حاوية مكسورة",
        "municipality": "تازغروت",
        "zone": "Zone A",
        "neighborhood": "الوسط",
        "street": "شارع 44",
        "address": "شارع 44، الوسط، تازغروت",
        "status": "closed",
        "priority": "low",
        "category": "حاوية مكسورة",
        "riskLevel": "medium",
        "reportedAt": "2026-07-04T00:00:00.000Z",
        "responsible": "ف. بلقاسم",
        "inspections": 4,
        "description": "تم رصد تراكم للنفايات في الموقع يتطلب تدخلاً عاجلاً من المصالح المختصة لتنظيف المنطقة ووضع حاويات إضافية.",
        "createdBy": "system",
        "createdAt": "2026-07-23T16:09:57.244Z",
        "updatedAt": "2026-07-23T16:09:57.244Z",
        "attachments": [],
        "history": []
      }
    },
    {
      "type": "Feature",
      "geometry": {
        "type": "Point",
        "coordinates": [
          7.243344409295385,
          35.56089210443734
        ]
      },
      "properties": {
        "uuid": "BS-1045",
        "code": "BS-1045",
        "title": "تفريغ غير قانوني",
        "municipality": "تليسنة",
        "zone": "Zone A",
        "neighborhood": "النصر",
        "street": "شارع 45",
        "address": "شارع 45، النصر، تليسنة",
        "status": "open",
        "priority": "critical",
        "category": "تفريغ غير قانوني",
        "riskLevel": "low",
        "reportedAt": "2026-07-05T00:00:00.000Z",
        "responsible": "ل. حمداني",
        "inspections": 5,
        "description": "تم رصد تراكم للنفايات في الموقع يتطلب تدخلاً عاجلاً من المصالح المختصة لتنظيف المنطقة ووضع حاويات إضافية.",
        "createdBy": "system",
        "createdAt": "2026-07-23T16:09:57.244Z",
        "updatedAt": "2026-07-23T16:09:57.244Z",
        "attachments": [],
        "history": []
      }
    },
    {
      "type": "Feature",
      "geometry": {
        "type": "Point",
        "coordinates": [
          7.28090136204484,
          35.456187175957524
        ]
      },
      "properties": {
        "uuid": "BS-1046",
        "code": "BS-1046",
        "title": "انسداد مجاري",
        "municipality": "سيدي عقبة",
        "zone": "Zone A",
        "neighborhood": "النصر",
        "street": "شارع 46",
        "address": "شارع 46، النصر، سيدي عقبة",
        "status": "inProgress",
        "priority": "high",
        "category": "انسداد مجاري",
        "riskLevel": "high",
        "reportedAt": "2026-07-06T00:00:00.000Z",
        "responsible": "ر. سعدي",
        "inspections": 1,
        "description": "تم رصد تراكم للنفايات في الموقع يتطلب تدخلاً عاجلاً من المصالح المختصة لتنظيف المنطقة ووضع حاويات إضافية.",
        "createdBy": "system",
        "createdAt": "2026-07-23T16:09:57.244Z",
        "updatedAt": "2026-07-23T16:09:57.244Z",
        "attachments": [],
        "history": []
      }
    },
    {
      "type": "Feature",
      "geometry": {
        "type": "Point",
        "coordinates": [
          7.156190338007742,
          35.59169242307608
        ]
      },
      "properties": {
        "uuid": "BS-1047",
        "code": "BS-1047",
        "title": "حطام بناء",
        "municipality": "المسارة الشرقية",
        "zone": "Zone A",
        "neighborhood": "السلام",
        "street": "شارع 47",
        "address": "شارع 47، السلام، المسارة الشرقية",
        "status": "resolved",
        "priority": "medium",
        "category": "حطام بناء",
        "riskLevel": "medium",
        "reportedAt": "2026-07-07T00:00:00.000Z",
        "responsible": "ك. عثماني",
        "inspections": 2,
        "description": "تم رصد تراكم للنفايات في الموقع يتطلب تدخلاً عاجلاً من المصالح المختصة لتنظيف المنطقة ووضع حاويات إضافية.",
        "createdBy": "system",
        "createdAt": "2026-07-23T16:09:57.244Z",
        "updatedAt": "2026-07-23T16:09:57.244Z",
        "attachments": [],
        "history": []
      }
    },
    {
      "type": "Feature",
      "geometry": {
        "type": "Point",
        "coordinates": [
          7.070426531273842,
          35.29877123377594
        ]
      },
      "properties": {
        "uuid": "BS-1048",
        "code": "BS-1048",
        "title": "رمي عشوائي",
        "municipality": "أولاد رشاش",
        "zone": "Zone A",
        "neighborhood": "الأمل",
        "street": "شارع 48",
        "address": "شارع 48، الأمل، أولاد رشاش",
        "status": "closed",
        "priority": "low",
        "category": "رمي عشوائي",
        "riskLevel": "low",
        "reportedAt": "2026-07-08T00:00:00.000Z",
        "responsible": "س. لعروسي",
        "inspections": 3,
        "description": "تم رصد تراكم للنفايات في الموقع يتطلب تدخلاً عاجلاً من المصالح المختصة لتنظيف المنطقة ووضع حاويات إضافية.",
        "createdBy": "system",
        "createdAt": "2026-07-23T16:09:57.244Z",
        "updatedAt": "2026-07-23T16:09:57.244Z",
        "attachments": [],
        "history": []
      }
    },
    {
      "type": "Feature",
      "geometry": {
        "type": "Point",
        "coordinates": [
          7.248313040263883,
          35.205706758397696
        ]
      },
      "properties": {
        "uuid": "BS-1049",
        "code": "BS-1049",
        "title": "تراكم النفايات",
        "municipality": "لمسين",
        "zone": "Zone A",
        "neighborhood": "البركة",
        "street": "شارع 49",
        "address": "شارع 49، البركة، لمسين",
        "status": "open",
        "priority": "critical",
        "category": "تراكم النفايات",
        "riskLevel": "high",
        "reportedAt": "2026-07-09T00:00:00.000Z",
        "responsible": "م. قاووس",
        "inspections": 4,
        "description": "تم رصد تراكم للنفايات في الموقع يتطلب تدخلاً عاجلاً من المصالح المختصة لتنظيف المنطقة ووضع حاويات إضافية.",
        "createdBy": "system",
        "createdAt": "2026-07-23T16:09:57.244Z",
        "updatedAt": "2026-07-23T16:09:57.244Z",
        "attachments": [],
        "history": []
      }
    },
    {
      "type": "Feature",
      "geometry": {
        "type": "Point",
        "coordinates": [
          7.058923520695023,
          35.59012162925275
        ]
      },
      "properties": {
        "uuid": "BS-1050",
        "code": "BS-1050",
        "title": "حاوية مكسورة",
        "municipality": "البلالة",
        "zone": "Zone A",
        "neighborhood": "الوحدة",
        "street": "شارع 50",
        "address": "شارع 50، الوحدة، البلالة",
        "status": "inProgress",
        "priority": "high",
        "category": "حاوية مكسورة",
        "riskLevel": "medium",
        "reportedAt": "2026-07-10T00:00:00.000Z",
        "responsible": "ع. مرزوق",
        "inspections": 5,
        "description": "تم رصد تراكم للنفايات في الموقع يتطلب تدخلاً عاجلاً من المصالح المختصة لتنظيف المنطقة ووضع حاويات إضافية.",
        "createdBy": "system",
        "createdAt": "2026-07-23T16:09:57.244Z",
        "updatedAt": "2026-07-23T16:09:57.244Z",
        "attachments": [],
        "history": []
      }
    },
    {
      "type": "Feature",
      "geometry": {
        "type": "Point",
        "coordinates": [
          7.0935798001781984,
          35.18151373239024
        ]
      },
      "properties": {
        "uuid": "BS-1051",
        "code": "BS-1051",
        "title": "تفريغ غير قانوني",
        "municipality": "عنسيغة",
        "zone": "Zone A",
        "neighborhood": "الفتح",
        "street": "شارع 51",
        "address": "شارع 51، الفتح، عنسيغة",
        "status": "resolved",
        "priority": "medium",
        "category": "تفريغ غير قانوني",
        "riskLevel": "low",
        "reportedAt": "2026-07-11T00:00:00.000Z",
        "responsible": "ف. بلقاسم",
        "inspections": 1,
        "description": "تم رصد تراكم للنفايات في الموقع يتطلب تدخلاً عاجلاً من المصالح المختصة لتنظيف المنطقة ووضع حاويات إضافية.",
        "createdBy": "system",
        "createdAt": "2026-07-23T16:09:57.244Z",
        "updatedAt": "2026-07-23T16:09:57.244Z",
        "attachments": [],
        "history": []
      }
    },
    {
      "type": "Feature",
      "geometry": {
        "type": "Point",
        "coordinates": [
          7.297125225577255,
          35.432504480355355
        ]
      },
      "properties": {
        "uuid": "BS-1052",
        "code": "BS-1052",
        "title": "انسداد مجاري",
        "municipality": "قايس أولاد يحيى",
        "zone": "Zone A",
        "neighborhood": "القدس",
        "street": "شارع 52",
        "address": "شارع 52، القدس، قايس أولاد يحيى",
        "status": "closed",
        "priority": "low",
        "category": "انسداد مجاري",
        "riskLevel": "high",
        "reportedAt": "2026-07-12T00:00:00.000Z",
        "responsible": "ل. حمداني",
        "inspections": 2,
        "description": "تم رصد تراكم للنفايات في الموقع يتطلب تدخلاً عاجلاً من المصالح المختصة لتنظيف المنطقة ووضع حاويات إضافية.",
        "createdBy": "system",
        "createdAt": "2026-07-23T16:09:57.244Z",
        "updatedAt": "2026-07-23T16:09:57.244Z",
        "attachments": [],
        "history": []
      }
    },
    {
      "type": "Feature",
      "geometry": {
        "type": "Point",
        "coordinates": [
          7.155501080312693,
          35.411534848658604
        ]
      },
      "properties": {
        "uuid": "BS-1053",
        "code": "BS-1053",
        "title": "حطام بناء",
        "municipality": "خنشلة",
        "zone": "Zone A",
        "neighborhood": "الورود",
        "street": "شارع 53",
        "address": "شارع 53، الورود، خنشلة",
        "status": "open",
        "priority": "critical",
        "category": "حطام بناء",
        "riskLevel": "medium",
        "reportedAt": "2026-07-13T00:00:00.000Z",
        "responsible": "س. بن عمر",
        "inspections": 3,
        "description": "تم رصد تراكم للنفايات في الموقع يتطلب تدخلاً عاجلاً من المصالح المختصة لتنظيف المنطقة ووضع حاويات إضافية.",
        "createdBy": "system",
        "createdAt": "2026-07-23T16:09:57.244Z",
        "updatedAt": "2026-07-23T16:09:57.244Z",
        "attachments": [],
        "history": []
      }
    },
    {
      "type": "Feature",
      "geometry": {
        "type": "Point",
        "coordinates": [
          7.224757082481433,
          35.37623100074686
        ]
      },
      "properties": {
        "uuid": "BS-1054",
        "code": "BS-1054",
        "title": "رمي عشوائي",
        "municipality": "بوحمامة",
        "zone": "Zone A",
        "neighborhood": "الزهور",
        "street": "شارع 54",
        "address": "شارع 54، الزهور، بوحمامة",
        "status": "inProgress",
        "priority": "high",
        "category": "رمي عشوائي",
        "riskLevel": "low",
        "reportedAt": "2026-07-14T00:00:00.000Z",
        "responsible": "م. خليفي",
        "inspections": 4,
        "description": "تم رصد تراكم للنفايات في الموقع يتطلب تدخلاً عاجلاً من المصالح المختصة لتنظيف المنطقة ووضع حاويات إضافية.",
        "createdBy": "system",
        "createdAt": "2026-07-23T16:09:57.244Z",
        "updatedAt": "2026-07-23T16:09:57.244Z",
        "attachments": [],
        "history": []
      }
    },
    {
      "type": "Feature",
      "geometry": {
        "type": "Point",
        "coordinates": [
          7.073969494962429,
          35.395785218846555
        ]
      },
      "properties": {
        "uuid": "BS-1055",
        "code": "BS-1055",
        "title": "تراكم النفايات",
        "municipality": "الحمامة",
        "zone": "Zone A",
        "neighborhood": "الزهور",
        "street": "شارع 55",
        "address": "شارع 55، الزهور، الحمامة",
        "status": "resolved",
        "priority": "medium",
        "category": "تراكم النفايات",
        "riskLevel": "high",
        "reportedAt": "2026-07-15T00:00:00.000Z",
        "responsible": "ع. مرزوق",
        "inspections": 5,
        "description": "تم رصد تراكم للنفايات في الموقع يتطلب تدخلاً عاجلاً من المصالح المختصة لتنظيف المنطقة ووضع حاويات إضافية.",
        "createdBy": "system",
        "createdAt": "2026-07-23T16:09:57.244Z",
        "updatedAt": "2026-07-23T16:09:57.244Z",
        "attachments": [],
        "history": []
      }
    },
    {
      "type": "Feature",
      "geometry": {
        "type": "Point",
        "coordinates": [
          7.172730733949344,
          35.35758352225489
        ]
      },
      "properties": {
        "uuid": "BS-1056",
        "code": "BS-1056",
        "title": "حاوية مكسورة",
        "municipality": "بقاية",
        "zone": "Zone A",
        "neighborhood": "الريان",
        "street": "شارع 56",
        "address": "شارع 56، الريان، بقاية",
        "status": "closed",
        "priority": "low",
        "category": "حاوية مكسورة",
        "riskLevel": "medium",
        "reportedAt": "2026-07-16T00:00:00.000Z",
        "responsible": "ف. بلقاسم",
        "inspections": 1,
        "description": "تم رصد تراكم للنفايات في الموقع يتطلب تدخلاً عاجلاً من المصالح المختصة لتنظيف المنطقة ووضع حاويات إضافية.",
        "createdBy": "system",
        "createdAt": "2026-07-23T16:09:57.244Z",
        "updatedAt": "2026-07-23T16:09:57.244Z",
        "attachments": [],
        "history": []
      }
    },
    {
      "type": "Feature",
      "geometry": {
        "type": "Point",
        "coordinates": [
          7.209408346673449,
          35.44674566505196
        ]
      },
      "properties": {
        "uuid": "BS-1057",
        "code": "BS-1057",
        "title": "تفريغ غير قانوني",
        "municipality": "قايس",
        "zone": "Zone A",
        "neighborhood": "الإخاء",
        "street": "شارع 57",
        "address": "شارع 57، الإخاء، قايس",
        "status": "open",
        "priority": "critical",
        "category": "تفريغ غير قانوني",
        "riskLevel": "low",
        "reportedAt": "2026-07-17T00:00:00.000Z",
        "responsible": "ل. حمداني",
        "inspections": 2,
        "description": "تم رصد تراكم للنفايات في الموقع يتطلب تدخلاً عاجلاً من المصالح المختصة لتنظيف المنطقة ووضع حاويات إضافية.",
        "createdBy": "system",
        "createdAt": "2026-07-23T16:09:57.244Z",
        "updatedAt": "2026-07-23T16:09:57.244Z",
        "attachments": [],
        "history": []
      }
    },
    {
      "type": "Feature",
      "geometry": {
        "type": "Point",
        "coordinates": [
          7.059240057009638,
          35.399994912770175
        ]
      },
      "properties": {
        "uuid": "BS-1058",
        "code": "BS-1058",
        "title": "انسداد مجاري",
        "municipality": "رميلة",
        "zone": "Zone A",
        "neighborhood": "الفردوس",
        "street": "شارع 58",
        "address": "شارع 58، الفردوس، رميلة",
        "status": "inProgress",
        "priority": "high",
        "category": "انسداد مجاري",
        "riskLevel": "high",
        "reportedAt": "2026-07-18T00:00:00.000Z",
        "responsible": "ر. سعدي",
        "inspections": 3,
        "description": "تم رصد تراكم للنفايات في الموقع يتطلب تدخلاً عاجلاً من المصالح المختصة لتنظيف المنطقة ووضع حاويات إضافية.",
        "createdBy": "system",
        "createdAt": "2026-07-23T16:09:57.244Z",
        "updatedAt": "2026-07-23T16:09:57.244Z",
        "attachments": [],
        "history": []
      }
    },
    {
      "type": "Feature",
      "geometry": {
        "type": "Point",
        "coordinates": [
          7.08918453021094,
          35.35959666226985
        ]
      },
      "properties": {
        "uuid": "BS-1059",
        "code": "BS-1059",
        "title": "حطام بناء",
        "municipality": "عين التوية",
        "zone": "Zone A",
        "neighborhood": "البرج",
        "street": "شارع 59",
        "address": "شارع 59، البرج، عين التوية",
        "status": "resolved",
        "priority": "medium",
        "category": "حطام بناء",
        "riskLevel": "medium",
        "reportedAt": "2026-07-19T00:00:00.000Z",
        "responsible": "ك. عثماني",
        "inspections": 4,
        "description": "تم رصد تراكم للنفايات في الموقع يتطلب تدخلاً عاجلاً من المصالح المختصة لتنظيف المنطقة ووضع حاويات إضافية.",
        "createdBy": "system",
        "createdAt": "2026-07-23T16:09:57.244Z",
        "updatedAt": "2026-07-23T16:09:57.244Z",
        "attachments": [],
        "history": []
      }
    },
    {
      "type": "Feature",
      "geometry": {
        "type": "Point",
        "coordinates": [
          7.2057167126476775,
          35.3092323338373
        ]
      },
      "properties": {
        "uuid": "BS-1060",
        "code": "BS-1060",
        "title": "رمي عشوائي",
        "municipality": "بابار",
        "zone": "Zone A",
        "neighborhood": "الصباح",
        "street": "شارع 60",
        "address": "شارع 60، الصباح، بابار",
        "status": "closed",
        "priority": "low",
        "category": "رمي عشوائي",
        "riskLevel": "low",
        "reportedAt": "2026-07-20T00:00:00.000Z",
        "responsible": "س. لعروسي",
        "inspections": 5,
        "description": "تم رصد تراكم للنفايات في الموقع يتطلب تدخلاً عاجلاً من المصالح المختصة لتنظيف المنطقة ووضع حاويات إضافية.",
        "createdBy": "system",
        "createdAt": "2026-07-23T16:09:57.244Z",
        "updatedAt": "2026-07-23T16:09:57.244Z",
        "attachments": [],
        "history": []
      }
    },
    {
      "type": "Feature",
      "geometry": {
        "type": "Point",
        "coordinates": [
          7.244135185009535,
          35.32659246570788
        ]
      },
      "properties": {
        "uuid": "BS-1061",
        "code": "BS-1061",
        "title": "تراكم النفايات",
        "municipality": "تامزة",
        "zone": "Zone A",
        "neighborhood": "الغابة",
        "street": "شارع 61",
        "address": "شارع 61، الغابة، تامزة",
        "status": "open",
        "priority": "critical",
        "category": "تراكم النفايات",
        "riskLevel": "high",
        "reportedAt": "2026-07-01T00:00:00.000Z",
        "responsible": "م. قاووس",
        "inspections": 1,
        "description": "تم رصد تراكم للنفايات في الموقع يتطلب تدخلاً عاجلاً من المصالح المختصة لتنظيف المنطقة ووضع حاويات إضافية.",
        "createdBy": "system",
        "createdAt": "2026-07-23T16:09:57.244Z",
        "updatedAt": "2026-07-23T16:09:57.244Z",
        "attachments": [],
        "history": []
      }
    },
    {
      "type": "Feature",
      "geometry": {
        "type": "Point",
        "coordinates": [
          7.289818648878065,
          35.37951590120182
        ]
      },
      "properties": {
        "uuid": "BS-1062",
        "code": "BS-1062",
        "title": "حاوية مكسورة",
        "municipality": "الولجة",
        "zone": "Zone A",
        "neighborhood": "الحدائق",
        "street": "شارع 62",
        "address": "شارع 62، الحدائق، الولجة",
        "status": "inProgress",
        "priority": "high",
        "category": "حاوية مكسورة",
        "riskLevel": "medium",
        "reportedAt": "2026-07-02T00:00:00.000Z",
        "responsible": "ع. مرزوق",
        "inspections": 2,
        "description": "تم رصد تراكم للنفايات في الموقع يتطلب تدخلاً عاجلاً من المصالح المختصة لتنظيف المنطقة ووضع حاويات إضافية.",
        "createdBy": "system",
        "createdAt": "2026-07-23T16:09:57.244Z",
        "updatedAt": "2026-07-23T16:09:57.244Z",
        "attachments": [],
        "history": []
      }
    },
    {
      "type": "Feature",
      "geometry": {
        "type": "Point",
        "coordinates": [
          7.152097429179744,
          35.26782636705836
        ]
      },
      "properties": {
        "uuid": "BS-1063",
        "code": "BS-1063",
        "title": "تفريغ غير قانوني",
        "municipality": "بوزينة",
        "zone": "Zone A",
        "neighborhood": "النخيل",
        "street": "شارع 63",
        "address": "شارع 63، النخيل، بوزينة",
        "status": "resolved",
        "priority": "medium",
        "category": "تفريغ غير قانوني",
        "riskLevel": "low",
        "reportedAt": "2026-07-03T00:00:00.000Z",
        "responsible": "ف. بلقاسم",
        "inspections": 3,
        "description": "تم رصد تراكم للنفايات في الموقع يتطلب تدخلاً عاجلاً من المصالح المختصة لتنظيف المنطقة ووضع حاويات إضافية.",
        "createdBy": "system",
        "createdAt": "2026-07-23T16:09:57.244Z",
        "updatedAt": "2026-07-23T16:09:57.244Z",
        "attachments": [],
        "history": []
      }
    },
    {
      "type": "Feature",
      "geometry": {
        "type": "Point",
        "coordinates": [
          7.073859601862693,
          35.45275430393057
        ]
      },
      "properties": {
        "uuid": "BS-1064",
        "code": "BS-1064",
        "title": "انسداد مجاري",
        "municipality": "شرشار",
        "zone": "Zone A",
        "neighborhood": "النخيل",
        "street": "شارع 64",
        "address": "شارع 64، النخيل، شرشار",
        "status": "closed",
        "priority": "low",
        "category": "انسداد مجاري",
        "riskLevel": "high",
        "reportedAt": "2026-07-04T00:00:00.000Z",
        "responsible": "ل. حمداني",
        "inspections": 4,
        "description": "تم رصد تراكم للنفايات في الموقع يتطلب تدخلاً عاجلاً من المصالح المختصة لتنظيف المنطقة ووضع حاويات إضافية.",
        "createdBy": "system",
        "createdAt": "2026-07-23T16:09:57.244Z",
        "updatedAt": "2026-07-23T16:09:57.244Z",
        "attachments": [],
        "history": []
      }
    }
  ]
}