<?xml version="1.0" encoding="UTF-8"?>
<kml xmlns="http://www.opengis.net/kml/2.2">
  <Document>
    <name>Mosques - Khenchela</name>
    <description>Mosquees de la commune de Khenchela</description>
    <Style id="mosque">
      <IconStyle><color>ff16A34A</color><scale>1.0</scale>
        <Icon><href>https://maps.google.com/mapfiles/kml/shapes/places_of_worship.png</href></Icon>
      </IconStyle>
    </Style>
    <Placemark><name>Mosquee Ennour</name><description>مسجد النور</description><styleUrl>#mosque</styleUrl><Point><coordinates>7.1400,35.4200,0</coordinates></Point></Placemark>
    <Placemark><name>Mosquee Es Salam</name><description>مسجد السلام</description><styleUrl>#mosque</styleUrl><Point><coordinates>7.1500,35.4220,0</coordinates></Point></Placemark>
    <Placemark><name>Mosquee El Fourqane</name><description>مسجد الفرقان</description><styleUrl>#mosque</styleUrl><Point><coordinates>7.1350,35.4180,0</coordinates></Point></Placemark>
    <Placemark><name>Mosquee Ettaqwa</name><description>مسجد التقوى</description><styleUrl>#mosque</styleUrl><Point><coordinates>7.1550,35.4250,0</coordinates></Point></Placemark>
    <Placemark><name>Mosquee El Birr</name><description>مسجد البر</description><styleUrl>#mosque</styleUrl><Point><coordinates>7.1450,35.4150,0</coordinates></Point></Placemark>
    <Placemark><name>Mosquee Errahma</name><description>مسجد الرحمة</description><styleUrl>#mosque</styleUrl><Point><coordinates>7.1300,35.4250,0</coordinates></Point></Placemark>
    <Placemark><name>Mosquee El Hidaya</name><description>مسجد الهداية</description><styleUrl>#mosque</styleUrl><Point><coordinates>7.1600,35.4200,0</coordinates></Point></Placemark>
    <Placemark><name>Mosquee Ibn Omar</name><description>مسجد ابن عمر</description><styleUrl>#mosque</styleUrl><Point><coordinates>7.1250,35.4150,0</coordinates></Point></Placemark>
  </Document>
</kml>
